IRIDIUM 7 [-]           
1 24793U 97020B   24095.25452119  .00000414  00000+0  13808-3 0  9993
2 24793  86.4020   0.7890 0002382  90.9179 269.2290 14.35143065408926
IRIDIUM 5 [-]           
1 24795U 97020D   24095.61396056  .00003222  00000+0  31344-3 0  9997
2 24795  86.3875 284.5952 0121809 263.5532  95.1812 14.86724595420135
IRIDIUM 4 [-]           
1 24796U 97020E   24095.44824765  .00000459  00000+0  15100-3 0  9993
2 24796  86.4013 357.8796 0002138  90.1966 269.9476 14.36063647409480
IRIDIUM 914 [-]         
1 24836U 97030A   24095.46758118  .00000522  00000+0  15992-3 0  9999
2 24836  86.3994   7.7536 0001377 141.3000 218.8298 14.39907894543979
IRIDIUM 911 [-]         
1 24842U 97030G   24095.56422921  .00000738  00000+0  19968-3 0  9993
2 24842  86.4506  28.6756 0016312 115.3204 244.9691 14.46401791411653
IRIDIUM 17 [-]          
1 24870U 97034B   24095.60616363  .00000623  00000+0  20430-3 0  9997
2 24870  86.3948  59.0841 0003070  56.0783 304.0706 14.36881401400580
